SL-16 R/B               
1 24298U 96051B   25307.67803077 -.00000085  00000+0 -19494-4 0  9996
2 24298  70.7590  81.9602 0017517 311.2268  48.7341 14.12392263503856
ORBVIEW 2 (SEASTAR)     
1 24883U 97037A   25307.67031796  .00000355  00000+0  13981-3 0  9994
2 24883  98.8444 103.7671 0003220  78.8867 281.2680 14.35370731490396
SL-16 R/B               
1 25400U 98043G   25307.78669135  .00000097  00000+0  59689-4 0  9993
2 25400  98.8056 255.4000 0010333  25.4558 334.7128 14.26010347421041
SL-16 R/B               
1 25407U 98045B   25307.77470123  .00000247  00000+0  14873-3 0  9990
2 25407  71.0102  86.3651 0008981 229.0231 131.0116 14.16167084409278
ISS (ZARYA)             
1 25544U 98067A   25307.77750668  .00010400  00000+0  19172-3 0  9990
2 25544  51.6338 335.3649 0004999  13.8862 346.2263 15.49729876536817
CZ-4B R/B               
1 25732U 99025C   25307.89814022  .00000094  00000+0  66529-4 0  9999
2 25732  98.6830 350.0354 0036824 348.4322 184.4831 14.18228610370332
OKEAN-O                 
1 25860U 99039A   25307.91753854  .00000904  00000+0  12622-3 0  9998
2 25860  97.9660   3.9457 0001711  74.0269 286.1131 14.80060258415787
SL-16 R/B               
1 25861U 99039B   25307.40980746  .00000712  00000+0  97652-4 0  9999
2 25861  98.0184   1.5477 0013770 310.7055  49.2961 14.81499127418164
DELTA 2 R/B             
1 25876U 99041E   25307.41021901  .00000913  00000+0  18597-3 0  9991
2 25876  51.7633  85.4203 0504710 335.8608  21.9396 14.11260493345190
HELIOS 1B               
1 25977U 99064A   25307.98116167  .00002314  00000+0  26469-3 0  9993
2 25977  98.1760 201.5031 0002508  95.6655 264.4846 14.87036558666577
TERRA                   
1 25994U 99068A   25307.92087444  .00000626  00000+0  13711-3 0  9995
2 25994  97.9805   1.0175 0001745 185.9918 346.8700 14.60882657376710
SL-16 R/B               
1 26070U 00006B   25307.89881271  .00000276  00000+0  16445-3 0  9999
2 26070  71.0042   2.3268 0016283   4.9778 355.1504 14.15799765330752
