CCSDS_OMM_VERS = 2.0
CREATION_DATE  = 
ORIGINATOR     = 

OBJECT_NAME    = SL-16 R/B
OBJECT_ID      = 1996-051B
CENTER_NAME    = EARTH
REF_FRAME      = TEME
TIME_SYSTEM    = UTC
MEAN_ELEMENT_THEORY = SGP/SGP4

EPOCH          = 2025-11-03T16:16:21.858528
MEAN_MOTION    = 14.12392263
ECCENTRICITY   = .00175178
INCLINATION    = 70.7590
RA_OF_ASC_NODE = 81.9602
ARG_OF_PERICENTER = 311.2268
MEAN_ANOMALY   = 48.7341

EPHEMERIS_TYPE = 0
CLASSIFICATION_TYPE = U
NORAD_CAT_ID   = 24298
ELEMENT_SET_NO = 999
REV_AT_EPOCH   = 50385
BSTAR          = -.19493759E-4
MEAN_MOTION_DOT = -.85E-6
MEAN_MOTION_DDOT = 0

CCSDS_OMM_VERS = 2.0
CREATION_DATE  = 
ORIGINATOR     = 

OBJECT_NAME    = ORBVIEW 2 (SEASTAR)
OBJECT_ID      = 1997-037A
CENTER_NAME    = EARTH
REF_FRAME      = TEME
TIME_SYSTEM    = UTC
MEAN_ELEMENT_THEORY = SGP/SGP4

EPOCH          = 2025-11-03T16:05:15.471744
MEAN_MOTION    = 14.35370731
ECCENTRICITY   = .00032209
INCLINATION    = 98.8444
RA_OF_ASC_NODE = 103.7671
ARG_OF_PERICENTER = 78.8867
MEAN_ANOMALY   = 281.2680

EPHEMERIS_TYPE = 0
CLASSIFICATION_TYPE = U
NORAD_CAT_ID   = 24883
ELEMENT_SET_NO = 999
REV_AT_EPOCH   = 49039
BSTAR          = .13980928E-3
MEAN_MOTION_DOT = .355E-5
MEAN_MOTION_DDOT = 0

CCSDS_OMM_VERS = 2.0
CREATION_DATE  = 
ORIGINATOR     = 

OBJECT_NAME    = SL-16 R/B
OBJECT_ID      = 1998-043G
CENTER_NAME    = EARTH
REF_FRAME      = TEME
TIME_SYSTEM    = UTC
MEAN_ELEMENT_THEORY = SGP/SGP4

EPOCH          = 2025-11-03T18:52:50.132640
MEAN_MOTION    = 14.26010347
ECCENTRICITY   = .00103339
INCLINATION    = 98.8056
RA_OF_ASC_NODE = 255.4000
ARG_OF_PERICENTER = 25.4558
MEAN_ANOMALY   = 334.7128

EPHEMERIS_TYPE = 0
CLASSIFICATION_TYPE = U
NORAD_CAT_ID   = 25400
ELEMENT_SET_NO = 999
REV_AT_EPOCH   = 42104
BSTAR          = .59688834E-4
MEAN_MOTION_DOT = .97E-6
MEAN_MOTION_DDOT = 0

CCSDS_OMM_VERS = 2.0
CREATION_DATE  = 
ORIGINATOR     = 

OBJECT_NAME    = SL-16 R/B
OBJECT_ID      = 1998-045B
CENTER_NAME    = EARTH
REF_FRAME      = TEME
TIME_SYSTEM    = UTC
MEAN_ELEMENT_THEORY = SGP/SGP4

EPOCH          = 2025-11-03T18:35:34.186272
MEAN_MOTION    = 14.16167084
ECCENTRICITY   = .00089816
INCLINATION    = 71.0102
RA_OF_ASC_NODE = 86.3651
ARG_OF_PERICENTER = 229.0231
MEAN_ANOMALY   = 131.0116

EPHEMERIS_TYPE = 0
CLASSIFICATION_TYPE = U
NORAD_CAT_ID   = 25407
ELEMENT_SET_NO = 999
REV_AT_EPOCH   = 40927
BSTAR          = .14872983E-3
MEAN_MOTION_DOT = .247E-5
MEAN_MOTION_DDOT = 0

CCSDS_OMM_VERS = 2.0
CREATION_DATE  = 
ORIGINATOR     = 

OBJECT_NAME    = ISS (ZARYA)
OBJECT_ID      = 1998-067A
CENTER_NAME    = EARTH
REF_FRAME      = TEME
TIME_SYSTEM    = UTC
MEAN_ELEMENT_THEORY = SGP/SGP4

EPOCH          = 2025-11-03T18:39:36.577152
MEAN_MOTION    = 15.49729876
ECCENTRICITY   = .00049997
INCLINATION    = 51.6338
RA_OF_ASC_NODE = 335.3649
ARG_OF_PERICENTER = 13.8862
MEAN_ANOMALY   = 346.2263

EPHEMERIS_TYPE = 0
CLASSIFICATION_TYPE = U
NORAD_CAT_ID   = 25544
ELEMENT_SET_NO = 999
REV_AT_EPOCH   = 53681
BSTAR          = .19171699E-3
MEAN_MOTION_DOT = .104E-3
MEAN_MOTION_DDOT = 0

CCSDS_OMM_VERS = 2.0
CREATION_DATE  = 
ORIGINATOR     = 

OBJECT_NAME    = CZ-4B R/B
OBJECT_ID      = 1999-025C
CENTER_NAME    = EARTH
REF_FRAME      = TEME
TIME_SYSTEM    = UTC
MEAN_ELEMENT_THEORY = SGP/SGP4

EPOCH          = 2025-11-03T21:33:19.315008
MEAN_MOTION    = 14.18228610
ECCENTRICITY   = .00368245
INCLINATION    = 98.6830
RA_OF_ASC_NODE = 350.0354
ARG_OF_PERICENTER = 348.4322
MEAN_ANOMALY   = 184.4831

EPHEMERIS_TYPE = 0
CLASSIFICATION_TYPE = U
NORAD_CAT_ID   = 25732
ELEMENT_SET_NO = 999
REV_AT_EPOCH   = 37033
BSTAR          = .66529244E-4
MEAN_MOTION_DOT = .94E-6
MEAN_MOTION_DDOT = 0

CCSDS_OMM_VERS = 2.0
CREATION_DATE  = 
ORIGINATOR     = 

OBJECT_NAME    = OKEAN-O
OBJECT_ID      = 1999-039A
CENTER_NAME    = EARTH
REF_FRAME      = TEME
TIME_SYSTEM    = UTC
MEAN_ELEMENT_THEORY = SGP/SGP4

EPOCH          = 2025-11-03T22:01:15.329856
MEAN_MOTION    = 14.80060258
ECCENTRICITY   = .00017114
INCLINATION    = 97.9660
RA_OF_ASC_NODE = 3.9457
ARG_OF_PERICENTER = 74.0269
MEAN_ANOMALY   = 286.1131

EPHEMERIS_TYPE = 0
CLASSIFICATION_TYPE = U
NORAD_CAT_ID   = 25860
ELEMENT_SET_NO = 999
REV_AT_EPOCH   = 41578
BSTAR          = .12622038E-3
MEAN_MOTION_DOT = .904E-5
MEAN_MOTION_DDOT = 0

CCSDS_OMM_VERS = 2.0
CREATION_DATE  = 
ORIGINATOR     = 

OBJECT_NAME    = SL-16 R/B
OBJECT_ID      = 1999-039B
CENTER_NAME    = EARTH
REF_FRAME      = TEME
TIME_SYSTEM    = UTC
MEAN_ELEMENT_THEORY = SGP/SGP4

EPOCH          = 2025-11-03T09:50:07.364544
MEAN_MOTION    = 14.81499127
ECCENTRICITY   = .001377
INCLINATION    = 98.0184
RA_OF_ASC_NODE = 1.5477
ARG_OF_PERICENTER = 310.7055
MEAN_ANOMALY   = 49.2961

EPHEMERIS_TYPE = 0
CLASSIFICATION_TYPE = U
NORAD_CAT_ID   = 25861
ELEMENT_SET_NO = 999
REV_AT_EPOCH   = 41816
BSTAR          = .97652402E-4
MEAN_MOTION_DOT = .712E-5
MEAN_MOTION_DDOT = 0

CCSDS_OMM_VERS = 2.0
CREATION_DATE  = 
ORIGINATOR     = 

OBJECT_NAME    = DELTA 2 R/B
OBJECT_ID      = 1999-041E
CENTER_NAME    = EARTH
REF_FRAME      = TEME
TIME_SYSTEM    = UTC
MEAN_ELEMENT_THEORY = SGP/SGP4

EPOCH          = 2025-11-03T09:50:42.922464
MEAN_MOTION    = 14.11260493
ECCENTRICITY   = .05047105
INCLINATION    = 51.7633
RA_OF_ASC_NODE = 85.4203
ARG_OF_PERICENTER = 335.8608
MEAN_ANOMALY   = 21.9396

EPHEMERIS_TYPE = 0
CLASSIFICATION_TYPE = U
NORAD_CAT_ID   = 25876
ELEMENT_SET_NO = 999
REV_AT_EPOCH   = 34519
BSTAR          = .18596598E-3
MEAN_MOTION_DOT = .913E-5
MEAN_MOTION_DDOT = 0

CCSDS_OMM_VERS = 2.0
CREATION_DATE  = 
ORIGINATOR     = 

OBJECT_NAME    = HELIOS 1B
OBJECT_ID      = 1999-064A
CENTER_NAME    = EARTH
REF_FRAME      = TEME
TIME_SYSTEM    = UTC
MEAN_ELEMENT_THEORY = SGP/SGP4

EPOCH          = 2025-11-03T23:32:52.368288
MEAN_MOTION    = 14.87036558
ECCENTRICITY   = .00025081
INCLINATION    = 98.1760
RA_OF_ASC_NODE = 201.5031
ARG_OF_PERICENTER = 95.6655
MEAN_ANOMALY   = 264.4846

EPHEMERIS_TYPE = 0
CLASSIFICATION_TYPE = U
NORAD_CAT_ID   = 25977
ELEMENT_SET_NO = 999
REV_AT_EPOCH   = 66657
BSTAR          = .26469481E-3
MEAN_MOTION_DOT = .2314E-4
MEAN_MOTION_DDOT = 0

CCSDS_OMM_VERS = 2.0
CREATION_DATE  = 
ORIGINATOR     = 

OBJECT_NAME    = TERRA
OBJECT_ID      = 1999-068A
CENTER_NAME    = EARTH
REF_FRAME      = TEME
TIME_SYSTEM    = UTC
MEAN_ELEMENT_THEORY = SGP/SGP4

EPOCH          = 2025-11-03T22:06:03.551616
MEAN_MOTION    = 14.60882657
ECCENTRICITY   = .0001745
INCLINATION    = 97.9805
RA_OF_ASC_NODE = 1.0175
ARG_OF_PERICENTER = 185.9918
MEAN_ANOMALY   = 346.8700

EPHEMERIS_TYPE = 0
CLASSIFICATION_TYPE = U
NORAD_CAT_ID   = 25994
ELEMENT_SET_NO = 999
REV_AT_EPOCH   = 37671
BSTAR          = .13711222E-3
MEAN_MOTION_DOT = .626E-5
MEAN_MOTION_DDOT = 0

CCSDS_OMM_VERS = 2.0
CREATION_DATE  = 
ORIGINATOR     = 

OBJECT_NAME    = SL-16 R/B
OBJECT_ID      = 2000-006B
CENTER_NAME    = EARTH
REF_FRAME      = TEME
TIME_SYSTEM    = UTC
MEAN_ELEMENT_THEORY = SGP/SGP4

EPOCH          = 2025-11-03T21:34:17.418144
MEAN_MOTION    = 14.15799765
ECCENTRICITY   = .00162831
INCLINATION    = 71.0042
RA_OF_ASC_NODE = 2.3268
ARG_OF_PERICENTER = 4.9778
MEAN_ANOMALY   = 355.1504

EPHEMERIS_TYPE = 0
CLASSIFICATION_TYPE = U
NORAD_CAT_ID   = 26070
ELEMENT_SET_NO = 999
REV_AT_EPOCH   = 33075
BSTAR          = .16445499E-3
MEAN_MOTION_DOT = .276E-5
MEAN_MOTION_DDOT = 0

